COSMOS 2544 [GLONASS-M] 
1 44850U 19088A   26092.47821141  .00000001  00000+0  00000+0 0  9993
2 44850  65.5087  76.2399 0013076 256.6381 103.2057  2.13086826 49106
BEIDOU-3 M19            
1 44864U 19090A   26095.17349922 -.00000038  00000+0  00000+0 0  9994
2 44864  56.4976  65.2019 0020306 293.9017 248.0667  1.86231756 42873
BEIDOU-3 M20            
1 44865U 19090B   26092.34794457 -.00000042  00000+0  00000+0 0  9993
2 44865  56.4965  65.3296 0017833 305.7575 231.4249  1.86231443 42800
BEIDOU-3 G2             
1 45344U 20017A   26095.12316836 -.00000138  00000+0  00000+0 0  9993
2 45344   2.7181  46.1506 0002845 336.9903 294.6728  1.00272116 22524
COSMOS 2545 [GLONASS-M] 
1 45358U 20018A   26090.32740933 -.00000034  00000+0  00000+0 0  9990
2 45358  64.4015 315.1566 0007330 245.6005 114.3786  2.13102306 47008
BEIDOU-3 G3             
1 45807U 20040A   26095.26770332 -.00000351  00000+0  00000+0 0  9990
2 45807   2.2687  67.2270 0004580 328.5008   4.7695  1.00269679 21338
NAVSTAR 79 (USA 304)    
1 45854U 20041A   26094.69425007 -.00000089  00000+0  00000+0 0  9993
2 45854  56.6255  31.7951 0061789 205.1546 336.5424  2.00560344 42565
GALAXY 30 (G-30)        
1 46114U 20056C   26094.93579735  .00000000  00000+0  00000+0 0  9996
2 46114   0.0165 201.4199 0002457 199.6088   4.1053  1.00272177 20557
COSMOS 2547 [GLONASS-K] 
1 46805U 20075A   26086.76204793 -.00000031  00000+0  00000+0 0  9990
2 46805  64.5985 195.1905 0007370 232.5213 127.4084  2.13100219 42176
NAVSTAR 80 (USA 309)    
1 46826U 20078A   26094.99361679  .00000005  00000+0  00000+0 0  9997
2 46826  53.9939 213.7458 0069932 205.1668 166.7977  2.00565254 40043
NAVSTAR 81 (USA 319)    
1 48859U 21054A   26087.05663564 -.00000088  00000+0  00000+0 0  9999
2 48859  55.2101 335.7223 0023817 231.1961 354.6747  2.00573996 35127
QZS-1R (MICHIBIKI-1R)   
1 49336U 21096A   26095.27455001 -.00000240  00000+0  00000+0 0  9994
2 49336  37.3126  80.6561 0750097 270.3991  76.8352  1.00280796 16274
GSAT0223 (GALILEO 27)   
1 49809U 21116A   26094.95822476 -.00000093  00000+0  00000+0 0  9996
2 49809  57.1835 343.6546 0001263 288.2502 249.3367  1.70475996 26933
GSAT0224 (GALILEO 28)   
1 49810U 21116B   26092.44211676 -.00000097  00000+0  00000+0 0  9998
2 49810  57.1862 343.7214 0001081  14.2092 171.7867  1.70475826 26910
COSMOS 2557 [GLONASS-K] 
1 52984U 22075A   26092.08886449 -.00000045  00000+0  00000+0 0  9998
2 52984  64.3418 317.1673 0010785 282.9879  76.9461  2.13101860 29095
COSMOS 2559 [GLONASS-K] 
1 54031U 22130A   26092.37757024 -.00000046  00000+0  00000+0 0  9994
2 54031  64.3149 317.2428 0010859 177.9210 182.1370  2.13101452 27076
COSMOS 2564 [GLONASS-M] 
1 54377U 22161A   26093.62878927  .00000015  00000+0  00000+0 0  9991
2 54377  64.7399 195.1849 0010327 215.7841 144.1673  2.13101981 26048
